ONEWEB-0525             
1 54143U 22138AG  24064.19109739 -.00000006  00000+0 -46831-4 0  9991
2 54143  87.9133 111.1887 0002138  88.6392 271.4985 13.19725757 67564
ONEWEB-0526             
1 54144U 22138AH  24064.14844893  .00000096  00000+0  20741-3 0  9992
2 54144  87.9130 111.1941 0001940  92.8019 267.3336 13.19726210 67532
ONEWEB-0529             
1 54145U 22138AJ  24064.15160503  .00000125  00000+0  27864-3 0  9999
2 54145  87.9138 111.2012 0002060  85.6882 274.4486 13.19726573 67552
ONEWEB-0531             
1 54146U 22138AK  24064.08963923  .00000068  00000+0  13437-3 0  9996
2 54146  87.9129  80.6319 0001303 127.7206 232.4046 13.20772779 69941
ONEWEB-0535             
1 54147U 22138AL  24064.56386337  .00000019  00000+0  14570-4 0  9994
2 54147  87.9132 111.1104 0001985 106.5438 253.5913 13.19725425 67620
ONEWEB-0536             
1 54148U 22138AM  24064.07701597  .00000128  00000+0  28358-3 0  9999
2 54148  87.9127  80.6843 0001963 125.4210 234.7106 13.20772383 69937
GSLV R/B                
1 54149U 22138AN  24064.23639444  .00004149  00000+0  42593-3 0  9993
2 54149  87.3785  52.0115 0021555 295.7711  64.1292 14.90003080 74153
ONEWEB-0527             
1 54642U 22166A   24063.93720291 -.00000052  00000+0 -15765-3 0  9991
2 54642  87.9227  50.2355 0001782  83.8089 276.3248 13.21825620 61641
